STARLINK-36828          
1 67857U 26034H   26067.58917780  .00324917  00000+0  15801-2 0  9996
2 67857  53.1586 216.8197 0000998  87.0754 273.0383 15.80988210  3768
STARLINK-36837          
1 67858U 26034J   26067.58768164  .00480272  00000+0  22959-2 0  9996
2 67858  53.1592 216.8090 0001021  99.2528 260.8611 15.80949222  3768
STARLINK-36393          
1 67859U 26034K   26067.58692671  .00258620  00000+0  12698-2 0  9995
2 67859  53.1591 216.8033 0001119 125.4832 234.6295 15.80961654  3763
STARLINK-35873          
1 67860U 26034L   26067.58618032  .00234040  00000+0  11538-2 0  9998
2 67860  53.1591 216.7988 0001229  74.4868 285.6290 15.80941376  3790
STARLINK-36325          
1 67861U 26034M   26067.58542932  .00471887  00000+0  22561-2 0  9994
2 67861  53.1591 216.7938 0001476   6.6787 353.4255 15.80969395  3760
STARLINK-36332          
1 67862U 26034N   26067.64789569  .00247584  00000+0  12173-2 0  9994
2 67862  53.1587 216.4722 0000690  81.9089 278.2012 15.80962250  3771
STARLINK-36835          
1 67863U 26034P   26067.58392710  .00266177  00000+0  13055-2 0  9995
2 67863  53.1592 216.7830 0001097 109.6374 250.4767 15.80963927  3768
STARLINK-36831          
1 67864U 26034Q   26067.58317615  .00314881  00000+0  15337-2 0  9998
2 67864  53.1588 216.7777 0001159  53.0834 307.0294 15.80982284  3767
STARLINK-36738          
1 67865U 26034R   26067.58242925  .00301141  00000+0  14705-2 0  9993
2 67865  53.1590 216.7724 0001112  82.9686 277.1463 15.80964340  3766
STARLINK-36780          
1 67866U 26034S   26067.58167847  .00314071  00000+0  15313-2 0  9995
2 67866  53.1594 216.7661 0001003  90.2390 269.8748 15.80962671  3763
STARLINK-36761          
1 67867U 26034T   26067.64414596  .00380849  00000+0  18378-2 0  9999
2 67867  53.1594 216.4453 0000678  96.6886 263.4214 15.81006906  3777
STARLINK-36762          
1 67868U 26034U   26067.58017862  .00298581  00000+0  14583-2 0  9993
2 67868  53.1594 216.7572 0001092  79.7067 280.4078 15.80966847  3761
STARLINK-36779          
1 67869U 26034V   26067.57942898  .00613078  00000+0  28861-2 0  9995
2 67869  53.1594 216.7514 0000975  26.5360 333.5712 15.80935225  3764
STARLINK-36770          
1 67870U 26034W   26067.57792758  .00376444  00000+0  18241-2 0  9999
2 67870  53.1599 216.7410 0001272  98.3381 261.7786 15.80929416  3765
STARLINK-36769          
1 67871U 26034X   26067.57868001  .00460542  00000+0  22126-2 0  9995
2 67871  53.1598 216.7465 0001670   6.1578 353.9465 15.80893647  3766
STARLINK-36786          
1 67872U 26034Y   26067.57717749  .00252443  00000+0  12411-2 0  9993
2 67872  53.1597 216.7366 0000960  74.5129 285.5999 15.80950329  3761
